{"type": "FeatureCollection", "features": [ {"type": "Feature", "properties": {"norad_id": 31241, "name": "FENGYUN 1C DEB", "group": "fengyun-1c-debris", "lat": 65.65862221638412, "lon": 126.95343635582788, "alt_km": 743.1444960891213, "timestamp": "2025-12-26T04:40:06.067868+00:00", "meta": {"OBJECT_NAME": "FENGYUN 1C DEB", "OBJECT_ID": "1999-025BLX", "EPOCH": "2025-12-25T21:40:43.645152", "MEAN_MOTION": 14.38743196, "ECCENTRICITY": 0.00670622, "INCLINATION": 99.2357, "RA_OF_ASC_NODE": 147.7201, "ARG_OF_PERICENTER": 142.8246, "MEAN_ANOMALY": 217.7611, "EPHEMERIS_TYPE": 0, "CLASSIFICATION_TYPE": "U", "NORAD_CAT_ID": 31241, "ELEMENT_SET_NO": 999, "REV_AT_EPOCH": 97880, "BSTAR": 0.00055396955, "MEAN_MOTION_DOT": 1.696e-05, "MEAN_MOTION_DDOT": 0}, "tle": {"line1": "1 31241U 99025BLX 25359.90328293  .00001696  00000+0  55397-3 0  9999", "line2": "2 31241  99.2357 147.7201 0067062 142.8246 217.7611 14.38743196978801"}}, "geometry": {"type": "Point", "coordinates": [126.95343635582788, 65.65862221638412]}}, {"type": "Feature", "properties": {"norad_id": 31243, "name": "FENGYUN 1C DEB", "group": "fengyun-1c-debris", "lat": -80.62052931448792, "lon": 151.23307209299168, "alt_km": 910.561702082834, "timestamp": "2025-12-26T04:40:06.067878+00:00", "meta": {"OBJECT_NAME": "FENGYUN 1C DEB", "OBJECT_ID": "1999-025BLZ", "EPOCH": "2025-12-23T13:58:38.376768", "MEAN_MOTION": 14.07196727, "ECCENTRICITY": 0.00662588, "INCLINATION": 98.7491, "RA_OF_ASC_NODE": 37.4986, "ARG_OF_PERICENTER": 138.173, "MEAN_ANOMALY": 222.453, "EPHEMERIS_TYPE": 0, "CLASSIFICATION_TYPE": "U", "NORAD_CAT_ID": 31243, "ELEMENT_SET_NO": 999, "REV_AT_EPOCH": 69460, "BSTAR": 0.00056007275, "MEAN_MOTION_DOT": 9.15e-06, "MEAN_MOTION_DDOT": 0}, "tle": {"line1": "1 31243U 99025BLZ 25357.58238862  .00000915  00000+0  56007-3 0  9997", "line2": "2 31243  98.7491  37.4986 0066258 138.1730 222.4530 14.07196727694607"}}, "geometry": {"type": "Point", "coordinates": [151.23307209299168, -80.62052931448792]}}, {"type": "Feature", "properties": {"norad_id": 31244, "name": "FENGYUN 1C DEB", "group": "fengyun-1c-debris", "lat": -64.59447601090186, "lon": -135.7858130833072, "alt_km": 902.3132509497709, "timestamp": "2025-12-26T04:40:06.067888+00:00", "meta": {"OBJECT_NAME": "FENGYUN 1C DEB", "OBJECT_ID": "1999-025BMA", "EPOCH": "2025-12-22T10:42:55.008864", "MEAN_MOTION": 14.0626394, "ECCENTRICITY": 0.01029519, "INCLINATION": 99.0337, "RA_OF_ASC_NODE": 60.0445, "ARG_OF_PERICENTER": 148.0726, "MEAN_ANOMALY": 212.6736, "EPHEMERIS_TYPE": 0, "CLASSIFICATION_TYPE": "U", "NORAD_CAT_ID": 31244, "ELEMENT_SET_NO": 999, "REV_AT_EPOCH": 57776, "BSTAR": 0.00030551963, "MEAN_MOTION_DOT": 4.84e-06, "MEAN_MOTION_DDOT": 0}, "tle": {"line1": "1 31244U 99025BMA 25356.44647001  .00000484  00000+0  30552-3 0  9999", "line2": "2 31244  99.0337  60.0445 0102951 148.0726 212.6736 14.06263940577766"}}, "geometry": {"type": "Point", "coordinates": [-135.7858130833072, -64.59447601090186]}}, {"type": "Feature", "properties": {"norad_id": 31246, "name": "FENGYUN 1C DEB", "group": "fengyun-1c-debris", "lat": -20.135205663882253, "lon": 23.59082775735638, "alt_km": 901.6284033395932, "timestamp": "2025-12-26T04:40:06.067899+00:00", "meta": {"OBJECT_NAME": "FENGYUN 1C DEB", "OBJECT_ID": "1999-025BMC", "EPOCH": "2025-12-25T19:10:26.013216", "MEAN_MOTION": 14.07301206, "ECCENTRICITY": 0.01475516, "INCLINATION": 98.8114, "RA_OF_ASC_NODE": 206.4652, "ARG_OF_PERICENTER": 307.3273, "MEAN_ANOMALY": 51.4527, "EPHEMERIS_TYPE": 0, "CLASSIFICATION_TYPE": "U", "NORAD_CAT_ID": 31246, "ELEMENT_SET_NO": 999, "REV_AT_EPOCH": 61936, "BSTAR": 0.0023125012, "MEAN_MOTION_DOT": 4.244e-05, "MEAN_MOTION_DDOT": 0}, "tle": {"line1": "1 31246U 99025BMC 25359.79891219  .00004244  00000+0  23125-2 0  9999", "line2": "2 31246  98.8114 206.4652 0147551 307.3273  51.4527 14.07301206619365"}}, "geometry": {"type": "Point", "coordinates": [23.59082775735638, -20.135205663882253]}}, {"type": "Feature", "properties": {"norad_id": 31247, "name": "FENGYUN 1C DEB", "group": "fengyun-1c-debris", "lat": 55.24080069289179, "lon": 82.56825038541356, "alt_km": 876.2078896633138, "timestamp": "2025-12-26T04:40:06.067910+00:00", "meta": {"OBJECT_NAME": "FENGYUN 1C DEB", "OBJECT_ID": "1999-025BMD", "EPOCH": "2025-12-19T03:38:56.942880", "MEAN_MOTION": 14.05141398, "ECCENTRICITY": 0.00591155, "INCLINATION": 99.3669, "RA_OF_ASC_NODE": 241.5398, "ARG_OF_PERICENTER": 45.1692, "MEAN_ANOMALY": 112.4499, "EPHEMERIS_TYPE": 0, "CLASSIFICATION_TYPE": "U", "NORAD_CAT_ID": 31247, "ELEMENT_SET_NO": 999, "REV_AT_EPOCH": 95611, "BSTAR": 0.0010015357, "MEAN_MOTION_DOT": 1.595e-05, "MEAN_MOTION_DDOT": 0}, "tle": {"line1": "1 31247U 99025BMD 25353.15204795  .00001595  00000+0  10015-2 0  9991", "line2": "2 31247  99.3669 241.5398 0059115  45.1692 112.4499 14.05141398956119"}}, "geometry": {"type": "Point", "coordinates": [82.56825038541356, 55.24080069289179]}}, {"type": "Feature", "properties": {"norad_id": 31248, "name": "FENGYUN 1C DEB", "group": "fengyun-1c-debris", "lat": 77.27840062168721, "lon": -76.05293382693394, "alt_km": 991.5955433078543, "timestamp": "2025-12-26T04:40:06.067920+00:00", "meta": {"OBJECT_NAME": "FENGYUN 1C DEB", "OBJECT_ID": "1999-025BME", "EPOCH": "2025-12-25T15:08:52.928160", "MEAN_MOTION": 13.92803672, "ECCENTRICITY": 0.0110016, "INCLINATION": 99.2624, "RA_OF_ASC_NODE": 57.0948, "ARG_OF_PERICENTER": 276.1676, "MEAN_ANOMALY": 239.5127, "EPHEMERIS_TYPE": 0, "CLASSIFICATION_TYPE": "U", "NORAD_CAT_ID": 31248, "ELEMENT_SET_NO": 999, "REV_AT_EPOCH": 95003, "BSTAR": 0.0006526, "MEAN_MOTION_DOT": 8.42e-06, "MEAN_MOTION_DDOT": 0}, "tle": {"line1": "1 31248U 99025BME 25359.63116815  .00000842  00000+0  65260-3 0  9993", "line2": "2 31248  99.2624  57.0948 0110016 276.1676 239.5127 13.92803672950036"}}, "geometry": {"type": "Point", "coordinates": [-76.05293382693394, 77.27840062168721]}}, {"type": "Feature", "properties": {"norad_id": 31250, "name": "FENGYUN 1C DEB", "group": "fengyun-1c-debris", "lat": 66.12459351718672, "lon": -170.28189690566253, "alt_km": 970.7905443811924, "timestamp": "2025-12-26T04:40:06.067930+00:00", "meta": {"OBJECT_NAME": "FENGYUN 1C DEB", "OBJECT_ID": "1999-025BMG", "EPOCH": "2025-12-25T12:56:20.824224", "MEAN_MOTION": 14.03130171, "ECCENTRICITY": 0.0132925, "INCLINATION": 98.3866, "RA_OF_ASC_NODE": 208.5821, "ARG_OF_PERICENTER": 261.6634, "MEAN_ANOMALY": 96.9445, "EPHEMERIS_TYPE": 0, "CLASSIFICATION_TYPE": "U", "NORAD_CAT_ID": 31250, "ELEMENT_SET_NO": 999, "REV_AT_EPOCH": 95697, "BSTAR": 0.0011252, "MEAN_MOTION_DOT": 1.853e-05, "MEAN_MOTION_DDOT": 0}, "tle": {"line1": "1 31250U 99025BMG 25359.53912991  .00001853  00000+0  11252-2 0  9998", "line2": "2 31250  98.3866 208.5821 0132925 261.6634  96.9445 14.03130171956973"}}, "geometry": {"type": "Point", "coordinates": [-170.28189690566253, 66.12459351718672]}}, {"type": "Feature", "properties": {"norad_id": 31252, "name": "FENGYUN 1C DEB", "group": "fengyun-1c-debris", "lat": 61.20545763828979, "lon": -145.89986241433087, "alt_km": 603.2812059749531, "timestamp": "2025-12-26T04:40:06.067940+00:00", "meta": {"OBJECT_NAME": "FENGYUN 1C DEB", "OBJECT_ID": "1999-025BMJ", "EPOCH": "2025-12-24T18:46:53.351616", "MEAN_MOTION": 14.40204702, "ECCENTRICITY": 0.02143798, "INCLINATION": 98.3164, "RA_OF_ASC_NODE": 17.2934, "ARG_OF_PERICENTER": 136.0097, "MEAN_ANOMALY": 225.8379, "EPHEMERIS_TYPE": 0, "CLASSIFICATION_TYPE": "U", "NORAD_CAT_ID": 31252, "ELEMENT_SET_NO": 999, "REV_AT_EPOCH": 97380, "BSTAR": 0.00029483577, "MEAN_MOTION_DOT": 1.174e-05, "MEAN_MOTION_DDOT": 0}, "tle": {"line1": "1 31252U 99025BMJ 25358.78256194  .00001174  00000+0  29484-3 0  9995", "line2": "2 31252  98.3164  17.2934 0214379 136.0097 225.8379 14.40204702973801"}}, "geometry": {"type": "Point", "coordinates": [-145.89986241433087, 61.20545763828979]}}, {"type": "Feature", "properties": {"norad_id": 31253, "name": "FENGYUN 1C DEB", "group": "fengyun-1c-debris", "lat": -77.53125289342609, "lon": -161.08179564680552, "alt_km": 1073.798812075397, "timestamp": "2025-12-26T04:40:06.067951+00:00", "meta": {"OBJECT_NAME": "FENGYUN 1C DEB", "OBJECT_ID": "1999-025BMK", "EPOCH": "2025-12-21T10:31:09.949440", "MEAN_MOTION": 14.03607251, "ECCENTRICITY": 0.02906334, "INCLINATION": 99.0756, "RA_OF_ASC_NODE": 60.4551, "ARG_OF_PERICENTER": 66.7312, "MEAN_ANOMALY": 296.4166, "EPHEMERIS_TYPE": 0, "CLASSIFICATION_TYPE": "U", "NORAD_CAT_ID": 31253, "ELEMENT_SET_NO": 999, "REV_AT_EPOCH": 69120, "BSTAR": 6.5782528e-05, "MEAN_MOTION_DOT": 1.04e-06, "MEAN_MOTION_DDOT": 0}, "tle": {"line1": "1 31253U 99025BMK 25355.43830960  .00000104  00000+0  65783-4 0  9999", "line2": "2 31253  99.0756  60.4551 0290633  66.7312 296.4166 14.03607251691202"}}, "geometry": {"type": "Point", "coordinates": [-161.08179564680552, -77.53125289342609]}}, {"type": "Feature", "properties": {"norad_id": 31254, "name": "FENGYUN 1C DEB", "group": "fengyun-1c-debris", "lat": 76.00574747806131, "lon": -93.67431709407089, "alt_km": 709.135931356981, "timestamp": "2025-12-26T04:40:06.067961+00:00", "meta": {"OBJECT_NAME": "FENGYUN 1C DEB", "OBJECT_ID": "1999-025BML", "EPOCH": "2025-12-24T16:01:08.448960", "MEAN_MOTION": 14.36394429, "ECCENTRICITY": 0.01518936, "INCLINATION": 98.4606, "RA_OF_ASC_NODE": 48.1531, "ARG_OF_PERICENTER": 166.6085, "MEAN_ANOMALY": 324.1697, "EPHEMERIS_TYPE": 0, "CLASSIFICATION_TYPE": "U", "NORAD_CAT_ID": 31254, "ELEMENT_SET_NO": 999, "REV_AT_EPOCH": 97687, "BSTAR": 0.00049743743, "MEAN_MOTION_DOT": 1.616e-05, "MEAN_MOTION_DDOT": 0}, "tle": {"line1": "1 31254U 99025BML 25358.66745890  .00001616  00000+0  49744-3 0  9992", "line2": "2 31254  98.4606  48.1531 0151893 166.6085 324.1697 14.36394429976875"}}, "geometry": {"type": "Point", "coordinates": [-93.67431709407089, 76.00574747806131]}}]}